GLOBALSTAR M063         
1 26081U 00008A   24181.77154059 -.00000085  00000+0 -31534-4 0  9993
2 26081  51.9972 319.6983 0004260   7.5694 139.6780 11.86156145115823
GLOBALSTAR M062         
1 26082U 00008B   24181.80867115 -.00000108  00000+0 -67325-4 0  9995
2 26082  51.9864  51.9990 0007799  78.3627 359.7296 12.43438755115281
GLOBALSTAR M060         
1 26083U 00008C   24181.58453859 -.00000058  00000+0  32754-3 0  9997
2 26083  52.0042 322.7834 0004125 129.0328 311.3433 12.17636753109414
GLOBALSTAR M064         
1 26084U 00008D   24181.59632923 -.00000075  00000+0  12389-3 0  9991
2 26084  52.0044  63.1439 0002076  83.8350 276.2719 11.88520154125170
GLOBALSTAR M065         
1 31571U 07020A   24181.55432668 -.00000047  00000+0  31716-3 0  9993
2 31571  51.9870 219.5389 0009880 245.6493 233.9083 12.61972960789188
GLOBALSTAR M069         
1 31573U 07020C   24181.39357897 -.00000071  00000+0  18464-3 0  9999
2 31573  51.9922 175.8367 0000563 293.0670 215.1476 12.62276299789991
GLOBALSTAR M072         
1 31574U 07020D   24181.51806272 -.00000089  00000+0  83579-4 0  9999
2 31574  52.0086 271.4091 0000723 168.1991 204.8256 12.62258976788282
GLOBALSTAR M071         
1 31576U 07020F   24181.42008650 -.00000082  00000+0  12278-3 0  9995
2 31576  52.0035 180.9329 0000303 354.4030 152.9269 12.62269099451185
